{"type": "FeatureCollection", "features": [ {"type": "Feature", "properties": {"norad_id": 52912, "name": "GAOFEN-12 03", "group": "resource", "lat": -28.691328787728914, "lon": 54.71709178870148, "alt_km": 637.7546745761992, "timestamp": "2025-12-17T19:34:07.702632+00:00", "meta": {"OBJECT_NAME": "GAOFEN-12 03", "OBJECT_ID": "2022-069A", "EPOCH": "2025-12-17T07:15:59.683968", "MEAN_MOTION": 14.79618283, "ECCENTRICITY": 0.00020993, "INCLINATION": 97.8486, "RA_OF_ASC_NODE": 238.546, "ARG_OF_PERICENTER": 55.4328, "MEAN_ANOMALY": 304.7082, "EPHEMERIS_TYPE": 0, "CLASSIFICATION_TYPE": "U", "NORAD_CAT_ID": 52912, "ELEMENT_SET_NO": 999, "REV_AT_EPOCH": 18771, "BSTAR": 6.3110113e-05, "MEAN_MOTION_DOT": 4.22e-06, "MEAN_MOTION_DDOT": 0}, "tle": {"line1": "1 52912U 22069A   25351.30277412  .00000422  00000+0  63110-4 0  9992", "line2": "2 52912  97.8486 238.5460 0002099  55.4328 304.7082 14.79618283187715"}}, "geometry": {"type": "Point", "coordinates": [54.71709178870148, -28.691328787728914]}}, {"type": "Feature", "properties": {"norad_id": 54754, "name": "SWOT", "group": "resource", "lat": 2.8827413493585823, "lon": 99.50420195013736, "alt_km": 895.520814872636, "timestamp": "2025-12-17T19:34:07.702642+00:00", "meta": {"OBJECT_NAME": "SWOT", "OBJECT_ID": "2022-173A", "EPOCH": "2025-12-17T06:43:19.951392", "MEAN_MOTION": 14.00167571, "ECCENTRICITY": 3.682e-05, "INCLINATION": 77.6107, "RA_OF_ASC_NODE": 280.8607, "ARG_OF_PERICENTER": 100.516, "MEAN_ANOMALY": 259.6033, "EPHEMERIS_TYPE": 0, "CLASSIFICATION_TYPE": "U", "NORAD_CAT_ID": 54754, "ELEMENT_SET_NO": 999, "REV_AT_EPOCH": 15369, "BSTAR": 6.3214219e-05, "MEAN_MOTION_DOT": 9.1e-07, "MEAN_MOTION_DDOT": 0}, "tle": {"line1": "1 54754U 22173A   25351.28009203  .00000091  00000+0  63214-4 0  9999", "line2": "2 54754  77.6107 280.8607 0000368 100.5160 259.6033 14.00167571153690"}}, "geometry": {"type": "Point", "coordinates": [99.50420195013736, 2.8827413493585823]}}, {"type": "Feature", "properties": {"norad_id": 57654, "name": "GAOFEN-12 04", "group": "resource", "lat": 19.86858155659377, "lon": -95.38542087898007, "alt_km": 629.8105289605228, "timestamp": "2025-12-17T19:34:07.702653+00:00", "meta": {"OBJECT_NAME": "GAOFEN-12 04", "OBJECT_ID": "2023-123A", "EPOCH": "2025-12-17T08:07:04.589184", "MEAN_MOTION": 14.79713606, "ECCENTRICITY": 0.00012635, "INCLINATION": 97.9125, "RA_OF_ASC_NODE": 267.0256, "ARG_OF_PERICENTER": 74.9605, "MEAN_ANOMALY": 285.1746, "EPHEMERIS_TYPE": 0, "CLASSIFICATION_TYPE": "U", "NORAD_CAT_ID": 57654, "ELEMENT_SET_NO": 999, "REV_AT_EPOCH": 12573, "BSTAR": 0.00015865688, "MEAN_MOTION_DOT": 1.14e-05, "MEAN_MOTION_DDOT": 0}, "tle": {"line1": "1 57654U 23123A   25351.33824756  .00001140  00000+0  15866-3 0  9996", "line2": "2 57654  97.9125 267.0256 0001263  74.9605 285.1746 14.79713606125738"}}, "geometry": {"type": "Point", "coordinates": [-95.38542087898007, 19.86858155659377]}}, {"type": "Feature", "properties": {"norad_id": 59065, "name": "PARS 1", "group": "resource", "lat": 80.64438293715374, "lon": -164.42443530081462, "alt_km": 428.96226414184275, "timestamp": "2025-12-17T19:34:07.702663+00:00", "meta": {"OBJECT_NAME": "PARS 1", "OBJECT_ID": "2024-039Q", "EPOCH": "2025-12-17T06:41:21.744096", "MEAN_MOTION": 15.41077671, "ECCENTRICITY": 0.0012292, "INCLINATION": 97.4631, "RA_OF_ASC_NODE": 322.3081, "ARG_OF_PERICENTER": 58.6743, "MEAN_ANOMALY": 301.5705, "EPHEMERIS_TYPE": 0, "CLASSIFICATION_TYPE": "U", "NORAD_CAT_ID": 59065, "ELEMENT_SET_NO": 999, "REV_AT_EPOCH": 10058, "BSTAR": 0.00024459937, "MEAN_MOTION_DOT": 0.00010051, "MEAN_MOTION_DDOT": 0}, "tle": {"line1": "1 59065U 24039Q   25351.27872389  .00010051  00000+0  24460-3 0  9990", "line2": "2 59065  97.4631 322.3081 0012292  58.6743 301.5705 15.41077671100589"}}, "geometry": {"type": "Point", "coordinates": [-164.42443530081462, 80.64438293715374]}}, {"type": "Feature", "properties": {"norad_id": 59371, "name": "RESURS-P 4", "group": "resource", "lat": 73.02541271907992, "lon": -86.62512386141857, "alt_km": 461.7271729837357, "timestamp": "2025-12-17T19:34:07.702673+00:00", "meta": {"OBJECT_NAME": "RESURS-P 4", "OBJECT_ID": "2024-061A", "EPOCH": "2025-12-17T08:16:19.663392", "MEAN_MOTION": 15.3212237, "ECCENTRICITY": 0.00011846, "INCLINATION": 97.2547, "RA_OF_ASC_NODE": 297.5801, "ARG_OF_PERICENTER": 56.3789, "MEAN_ANOMALY": 303.7566, "EPHEMERIS_TYPE": 0, "CLASSIFICATION_TYPE": "U", "NORAD_CAT_ID": 59371, "ELEMENT_SET_NO": 999, "REV_AT_EPOCH": 9591, "BSTAR": 0.00011078295, "MEAN_MOTION_DOT": 3.36e-05, "MEAN_MOTION_DDOT": 0}, "tle": {"line1": "1 59371U 24061A   25351.34467203  .00003360  00000+0  11078-3 0  9994", "line2": "2 59371  97.2547 297.5801 0001184  56.3789 303.7566 15.32122370 95915"}}, "geometry": {"type": "Point", "coordinates": [-86.62512386141857, 73.02541271907992]}}, {"type": "Feature", "properties": {"norad_id": 59625, "name": "LEGION 1", "group": "resource", "lat": 14.962494252712576, "lon": 64.38727197183829, "alt_km": 516.8182181733082, "timestamp": "2025-12-17T19:34:07.702684+00:00", "meta": {"OBJECT_NAME": "LEGION 1", "OBJECT_ID": "2024-081A", "EPOCH": "2025-12-17T06:50:02.072544", "MEAN_MOTION": 15.16525603, "ECCENTRICITY": 0.0003735, "INCLINATION": 97.5215, "RA_OF_ASC_NODE": 65.8847, "ARG_OF_PERICENTER": 297.2527, "MEAN_ANOMALY": 62.8325, "EPHEMERIS_TYPE": 0, "CLASSIFICATION_TYPE": "U", "NORAD_CAT_ID": 59625, "ELEMENT_SET_NO": 999, "REV_AT_EPOCH": 8996, "BSTAR": 0.00022114494, "MEAN_MOTION_DOT": 4.244e-05, "MEAN_MOTION_DDOT": 0}, "tle": {"line1": "1 59625U 24081A   25351.28474621  .00004244  00000+0  22114-3 0  9998", "line2": "2 59625  97.5215  65.8847 0003735 297.2527  62.8325 15.16525603 89960"}}, "geometry": {"type": "Point", "coordinates": [64.38727197183829, 14.962494252712576]}}, {"type": "Feature", "properties": {"norad_id": 59626, "name": "LEGION 2", "group": "resource", "lat": -15.090035774594028, "lon": -115.54344389499049, "alt_km": 520.251843106219, "timestamp": "2025-12-17T19:34:07.702694+00:00", "meta": {"OBJECT_NAME": "LEGION 2", "OBJECT_ID": "2024-081B", "EPOCH": "2025-12-17T06:02:31.680384", "MEAN_MOTION": 15.16537463, "ECCENTRICITY": 0.00056243, "INCLINATION": 97.5218, "RA_OF_ASC_NODE": 65.9394, "ARG_OF_PERICENTER": 274.2156, "MEAN_ANOMALY": 85.8434, "EPHEMERIS_TYPE": 0, "CLASSIFICATION_TYPE": "U", "NORAD_CAT_ID": 59626, "ELEMENT_SET_NO": 999, "REV_AT_EPOCH": 8996, "BSTAR": 0.00019789146, "MEAN_MOTION_DOT": 3.792e-05, "MEAN_MOTION_DDOT": 0}, "tle": {"line1": "1 59626U 24081B   25351.25175556  .00003792  00000+0  19789-3 0  9992", "line2": "2 59626  97.5218  65.9394 0005624 274.2156  85.8434 15.16537463 89967"}}, "geometry": {"type": "Point", "coordinates": [-115.54344389499049, -15.090035774594028]}}, {"type": "Feature", "properties": {"norad_id": 60182, "name": "ALOS-4 (DAICHI-4)", "group": "resource", "lat": -74.42369449554307, "lon": -123.38045612831249, "alt_km": 639.2050073035689, "timestamp": "2025-12-17T19:34:07.702704+00:00", "meta": {"OBJECT_NAME": "ALOS-4 (DAICHI-4)", "OBJECT_ID": "2024-123A", "EPOCH": "2025-12-16T22:56:04.911360", "MEAN_MOTION": 14.79477844, "ECCENTRICITY": 0.00013999, "INCLINATION": 97.9225, "RA_OF_ASC_NODE": 85.7427, "ARG_OF_PERICENTER": 99.1223, "MEAN_ANOMALY": 261.0147, "EPHEMERIS_TYPE": 0, "CLASSIFICATION_TYPE": "U", "NORAD_CAT_ID": 60182, "ELEMENT_SET_NO": 999, "REV_AT_EPOCH": 7893, "BSTAR": 0.00025137573, "MEAN_MOTION_DOT": 1.827e-05, "MEAN_MOTION_DDOT": 0}, "tle": {"line1": "1 60182U 24123A   25350.95561240  .00001827  00000+0  25138-3 0  9995", "line2": "2 60182  97.9225  85.7427 0001399  99.1223 261.0147 14.79477844 78937"}}, "geometry": {"type": "Point", "coordinates": [-123.38045612831249, -74.42369449554307]}}, {"type": "Feature", "properties": {"norad_id": 60452, "name": "LEGION 3", "group": "resource", "lat": -44.58827720618035, "lon": -157.5959622708308, "alt_km": 515.4135578289433, "timestamp": "2025-12-17T19:34:07.702714+00:00", "meta": {"OBJECT_NAME": "LEGION 3", "OBJECT_ID": "2024-146A", "EPOCH": "2025-12-17T05:42:00.231552", "MEAN_MOTION": 15.15810518, "ECCENTRICITY": 0.00153947, "INCLINATION": 45.0024, "RA_OF_ASC_NODE": 286.0198, "ARG_OF_PERICENTER": 223.0132, "MEAN_ANOMALY": 136.9544, "EPHEMERIS_TYPE": 0, "CLASSIFICATION_TYPE": "U", "NORAD_CAT_ID": 60452, "ELEMENT_SET_NO": 999, "REV_AT_EPOCH": 7441, "BSTAR": 0.00023021443, "MEAN_MOTION_DOT": 4.22e-05, "MEAN_MOTION_DDOT": 0}, "tle": {"line1": "1 60452U 24146A   25351.23750268  .00004220  00000+0  23021-3 0  9991", "line2": "2 60452  45.0024 286.0198 0015394 223.0132 136.9544 15.15810518 74416"}}, "geometry": {"type": "Point", "coordinates": [-157.5959622708308, -44.58827720618035]}}, {"type": "Feature", "properties": {"norad_id": 60453, "name": "LEGION 4", "group": "resource", "lat": -44.85087864443686, "lon": -69.09288362183214, "alt_km": 519.1948432841327, "timestamp": "2025-12-17T19:34:07.702725+00:00", "meta": {"OBJECT_NAME": "LEGION 4", "OBJECT_ID": "2024-146B", "EPOCH": "2025-12-17T07:17:30.497280", "MEAN_MOTION": 15.15873516, "ECCENTRICITY": 0.0009057, "INCLINATION": 45.0399, "RA_OF_ASC_NODE": 17.4295, "ARG_OF_PERICENTER": 334.7965, "MEAN_ANOMALY": 25.2471, "EPHEMERIS_TYPE": 0, "CLASSIFICATION_TYPE": "U", "NORAD_CAT_ID": 60453, "ELEMENT_SET_NO": 999, "REV_AT_EPOCH": 7327, "BSTAR": 0.0002175649, "MEAN_MOTION_DOT": 3.974e-05, "MEAN_MOTION_DDOT": 0}, "tle": {"line1": "1 60453U 24146B   25351.30382520  .00003974  00000+0  21756-3 0  9990", "line2": "2 60453  45.0399  17.4295 0009057 334.7965  25.2471 15.15873516 73278"}}, "geometry": {"type": "Point", "coordinates": [-69.09288362183214, -44.85087864443686]}}]}